{
  "type": "FeatureCollection",
  "features": [
    {
      "type": "Feature",
      "properties": {
        "norad_id": 29985,
        "name": "FENGYUN 1C DEB",
        "group": "fengyun-1c-debris",
        "lat": -75.53874229423427,
        "lon": 154.6981656776537,
        "alt_km": 860.8581721094824,
        "timestamp": "2025-12-22T09:53:37.674555+00:00",
        "meta_object_name": "FENGYUN 1C DEB",
        "meta_object_id": "1999-025LK",
        "meta_epoch": "2025-12-22T00:17:52.573920",
        "meta_mean_motion": 14.10325693,
        "meta_eccentricity": 0.0028584,
        "meta_inclination": 98.71,
        "meta_ra_of_asc_node": 10.7817,
        "meta_arg_of_pericenter": 182.4911,
        "meta_mean_anomaly": 206.7191,
        "meta_ephemeris_type": 0,
        "meta_classification_type": "U",
        "meta_norad_cat_id": 29985,
        "meta_element_set_no": 999,
        "meta_rev_at_epoch": 97479,
        "meta_bstar": 9.6636e-06,
        "meta_mean_motion_dot": -2.5e-07,
        "meta_mean_motion_ddot": 0,
        "tle_line1": "1 29985U 99025LK  25356.01241405 -.00000025  00000+0  96636-5 0  9998",
        "tle_line2": "2 29985  98.7100  10.7817 0028584 182.4911 206.7191 14.10325693974793"
      },
      "geometry": {
        "type": "Point",
        "coordinates": [
          154.6981656776537,
          -75.53874229423427
        ]
      }
    },
    {
      "type": "Feature",
      "properties": {
        "norad_id": 29986,
        "name": "FENGYUN 1C DEB",
        "group": "fengyun-1c-debris",
        "lat": 9.301424024463604,
        "lon": -113.61608949863707,
        "alt_km": 810.913753359875,
        "timestamp": "2025-12-22T09:53:37.674565+00:00",
        "meta_object_name": "FENGYUN 1C DEB",
        "meta_object_id": "1999-025LL",
        "meta_epoch": "2025-12-21T18:34:31.116864",
        "meta_mean_motion": 14.29280258,
        "meta_eccentricity": 0.0022873,
        "meta_inclination": 99.3979,
        "meta_ra_of_asc_node": 64.1419,
        "meta_arg_of_pericenter": 329.9678,
        "meta_mean_anomaly": 158.2495,
        "meta_ephemeris_type": 0,
        "meta_classification_type": "U",
        "meta_norad_cat_id": 29986,
        "meta_element_set_no": 999,
        "meta_rev_at_epoch": 97636,
        "meta_bstar": 0.001171,
        "meta_mean_motion_dot": 2.937e-05,
        "meta_mean_motion_ddot": 0,
        "tle_line1": "1 29986U 99025LL  25355.77397126  .00002937  00000+0  11710-2 0  9993",
        "tle_line2": "2 29986  99.3979  64.1419 0022873 329.9678 158.2495 14.29280258976369"
      },
      "geometry": {
        "type": "Point",
        "coordinates": [
          -113.61608949863707,
          9.301424024463604
        ]
      }
    },
    {
      "type": "Feature",
      "properties": {
        "norad_id": 29987,
        "name": "FENGYUN 1C DEB",
        "group": "fengyun-1c-debris",
        "lat": -23.789649320709998,
        "lon": -107.67561827532552,
        "alt_km": 885.7244638288203,
        "timestamp": "2025-12-22T09:53:37.674575+00:00",
        "meta_object_name": "FENGYUN 1C DEB",
        "meta_object_id": "1999-025LM",
        "meta_epoch": "2025-12-22T03:59:36.262752",
        "meta_mean_motion": 14.14621129,
        "meta_eccentricity": 0.0078759,
        "meta_inclination": 98.8981,
        "meta_ra_of_asc_node": 248.1193,
        "meta_arg_of_pericenter": 206.1823,
        "meta_mean_anomaly": 317.8163,
        "meta_ephemeris_type": 0,
        "meta_classification_type": "U",
        "meta_norad_cat_id": 29987,
        "meta_element_set_no": 999,
        "meta_rev_at_epoch": 96506,
        "meta_bstar": 0.0023895,
        "meta_mean_motion_dot": 4.689e-05,
        "meta_mean_motion_ddot": 0,
        "tle_line1": "1 29987U 99025LM  25356.16639193  .00004689  00000+0  23895-2 0  9994",
        "tle_line2": "2 29987  98.8981 248.1193 0078759 206.1823 317.8163 14.14621129965062"
      },
      "geometry": {
        "type": "Point",
        "coordinates": [
          -107.67561827532552,
          -23.789649320709998
        ]
      }
    },
    {
      "type": "Feature",
      "properties": {
        "norad_id": 29988,
        "name": "FENGYUN 1C DEB",
        "group": "fengyun-1c-debris",
        "lat": 15.259183102704977,
        "lon": -76.97317690392232,
        "alt_km": 809.8736646807283,
        "timestamp": "2025-12-22T09:53:37.674585+00:00",
        "meta_object_name": "FENGYUN 1C DEB",
        "meta_object_id": "1999-025LN",
        "meta_epoch": "2025-12-22T01:41:06.436032",
        "meta_mean_motion": 14.50486637,
        "meta_eccentricity": 0.0120094,
        "meta_inclination": 98.6956,
        "meta_ra_of_asc_node": 100.2808,
        "meta_arg_of_pericenter": 349.8466,
        "meta_mean_anomaly": 189.5424,
        "meta_ephemeris_type": 0,
        "meta_classification_type": "U",
        "meta_norad_cat_id": 29988,
        "meta_element_set_no": 999,
        "meta_rev_at_epoch": 98202,
        "meta_bstar": 0.0013769,
        "meta_mean_motion_dot": 5.862e-05,
        "meta_mean_motion_ddot": 0,
        "tle_line1": "1 29988U 99025LN  25356.07021338  .00005862  00000+0  13769-2 0  9994",
        "tle_line2": "2 29988  98.6956 100.2808 0120094 349.8466 189.5424 14.50486637982024"
      },
      "geometry": {
        "type": "Point",
        "coordinates": [
          -76.97317690392232,
          15.259183102704977
        ]
      }
    },
    {
      "type": "Feature",
      "properties": {
        "norad_id": 29989,
        "name": "FENGYUN 1C DEB",
        "group": "fengyun-1c-debris",
        "lat": -40.6085133943823,
        "lon": -17.542829132786522,
        "alt_km": 923.8355376685986,
        "timestamp": "2025-12-22T09:53:37.674594+00:00",
        "meta_object_name": "FENGYUN 1C DEB",
        "meta_object_id": "1999-025LP",
        "meta_epoch": "2025-12-21T22:20:22.162848",
        "meta_mean_motion": 14.15824267,
        "meta_eccentricity": 0.0123686,
        "meta_inclination": 98.6688,
        "meta_ra_of_asc_node": 334.4729,
        "meta_arg_of_pericenter": 169.2884,
        "meta_mean_anomaly": 216.4818,
        "meta_ephemeris_type": 0,
        "meta_classification_type": "U",
        "meta_norad_cat_id": 29989,
        "meta_element_set_no": 999,
        "meta_rev_at_epoch": 97741,
        "meta_bstar": 0.00011922,
        "meta_mean_motion_dot": 2.1e-06,
        "meta_mean_motion_ddot": 0,
        "tle_line1": "1 29989U 99025LP  25355.93081207  .00000210  00000+0  11922-3 0  9992",
        "tle_line2": "2 29989  98.6688 334.4729 0123686 169.2884 216.4818 14.15824267977418"
      },
      "geometry": {
        "type": "Point",
        "coordinates": [
          -17.542829132786522,
          -40.6085133943823
        ]
      }
    },
    {
      "type": "Feature",
      "properties": {
        "norad_id": 29992,
        "name": "FENGYUN 1C DEB",
        "group": "fengyun-1c-debris",
        "lat": 33.513402839405856,
        "lon": -14.554987409721695,
        "alt_km": 869.2417714361454,
        "timestamp": "2025-12-22T09:53:37.674604+00:00",
        "meta_object_name": "FENGYUN 1C DEB",
        "meta_object_id": "1999-025LS",
        "meta_epoch": "2025-12-21T22:07:31.150848",
        "meta_mean_motion": 14.1161468,
        "meta_eccentricity": 0.008931,
        "meta_inclination": 98.7302,
        "meta_ra_of_asc_node": 350.8082,
        "meta_arg_of_pericenter": 141.6939,
        "meta_mean_anomaly": 282.8505,
        "meta_ephemeris_type": 0,
        "meta_classification_type": "U",
        "meta_norad_cat_id": 29992,
        "meta_element_set_no": 999,
        "meta_rev_at_epoch": 97517,
        "meta_bstar": 9.2674e-05,
        "meta_mean_motion_dot": 1.33e-06,
        "meta_mean_motion_ddot": 0,
        "tle_line1": "1 29992U 99025LS  25355.92188832  .00000133  00000+0  92674-4 0  9995",
        "tle_line2": "2 29992  98.7302 350.8082 0089310 141.6939 282.8505 14.11614680975173"
      },
      "geometry": {
        "type": "Point",
        "coordinates": [
          -14.554987409721695,
          33.513402839405856
        ]
      }
    },
    {
      "type": "Feature",
      "properties": {
        "norad_id": 29993,
        "name": "FENGYUN 1C DEB",
        "group": "fengyun-1c-debris",
        "lat": -55.65508875370157,
        "lon": -160.19396741895932,
        "alt_km": 854.9241105281708,
        "timestamp": "2025-12-22T09:53:37.674614+00:00",
        "meta_object_name": "FENGYUN 1C DEB",
        "meta_object_id": "1999-025LT",
        "meta_epoch": "2025-12-22T01:56:55.656672",
        "meta_mean_motion": 14.08151674,
        "meta_eccentricity": 0.0038236,
        "meta_inclination": 98.792,
        "meta_ra_of_asc_node": 32.5742,
        "meta_arg_of_pericenter": 287.756,
        "meta_mean_anomaly": 71.9438,
        "meta_ephemeris_type": 0,
        "meta_classification_type": "U",
        "meta_norad_cat_id": 29993,
        "meta_element_set_no": 999,
        "meta_rev_at_epoch": 97301,
        "meta_bstar": 3.9675e-05,
        "meta_mean_motion_dot": 2.5e-07,
        "meta_mean_motion_ddot": 0,
        "tle_line1": "1 29993U 99025LT  25356.08119973  .00000025  00000+0  39675-4 0  9996",
        "tle_line2": "2 29993  98.7920  32.5742 0038236 287.7560  71.9438 14.08151674973018"
      },
      "geometry": {
        "type": "Point",
        "coordinates": [
          -160.19396741895932,
          -55.65508875370157
        ]
      }
    }
  ]
}